ONEWEB-0403             
1 50483U 21132Q   25228.47348012  .00000070  00000+0  14410-3 0  9996
2 50483  87.9140  35.9676 0001816  95.8436 264.2903 13.18687751181438
ONEWEB-0404             
1 50484U 21132R   25228.52589789  .00000019  00000+0  17850-4 0  9996
2 50484  87.8786  81.7911 0001832  95.6470 264.4867 13.11413955175765
ONEWEB-0405             
1 50485U 21132S   25228.48830872  .00000126  00000+0  28708-3 0  9996
2 50485  87.9138  35.9507 0002108  90.3601 269.7773 13.18685677181833
ONEWEB-0406             
1 50486U 21132T   25228.47842590  .00000076  00000+0  15893-3 0  9991
2 50486  87.9141  35.9756 0001627 110.3576 249.7731 13.18687066181468
ONEWEB-0407             
1 50487U 21132U   25228.47182408  .00000079  00000+0  16860-3 0  9995
2 50487  87.9142  35.9620 0001940  92.6882 267.4472 13.18685332181407
ONEWEB-0409             
1 50488U 21132V   25228.52420328  .00000062  00000+0  13938-3 0  9993
2 50488  87.8775  81.7511 0001598  94.4051 265.7260 13.11413397175653
ONEWEB-0412             
1 50489U 21132W   25228.46028688  .00000072  00000+0  14937-3 0  9991
2 50489  87.9138  35.9774 0002126  87.4909 272.6466 13.18686026181494
ONEWEB-0413             
1 50490U 21132X   25228.46522054  .00000077  00000+0  16208-3 0  9997
2 50490  87.9142  35.9921 0002011  83.1549 276.9811 13.18683832181438
